{
  "type": "FeatureCollection",
  "features": [
    {
      "type": "Feature",
      "properties": {
        "norad_id": 34765,
        "name": "IRIDIUM 33 DEB",
        "group": "iridium-33-debris",
        "lat": -36.7704017119598,
        "lon": -141.5137131882901,
        "alt_km": 753.5816283517916,
        "timestamp": "2025-12-05T18:53:13.665958+00:00",
        "meta_object_name": "IRIDIUM 33 DEB",
        "meta_object_id": "1997-051LJ",
        "meta_epoch": "2025-12-05T04:49:32.160288",
        "meta_mean_motion": 14.40434578,
        "meta_eccentricity": 0.00147508,
        "meta_inclination": 86.3394,
        "meta_ra_of_asc_node": 35.9955,
        "meta_arg_of_pericenter": 238.4713,
        "meta_mean_anomaly": 182.0621,
        "meta_ephemeris_type": 0,
        "meta_classification_type": "U",
        "meta_norad_cat_id": 34765,
        "meta_element_set_no": 999,
        "meta_rev_at_epoch": 87505,
        "meta_bstar": 0.00075186507,
        "meta_mean_motion_dot": 2.41e-05,
        "meta_mean_motion_ddot": 0,
        "tle_line1": "1 34765U 97051LJ  25339.20106667  .00002410  00000+0  75187-3 0  9994",
        "tle_line2": "2 34765  86.3394  35.9955 0014750 238.4713 182.0621 14.40434578875056"
      },
      "geometry": {
        "type": "Point",
        "coordinates": [
          -141.5137131882901,
          -36.7704017119598
        ]
      }
    },
    {
      "type": "Feature",
      "properties": {
        "norad_id": 34833,
        "name": "IRIDIUM 33 DEB",
        "group": "iridium-33-debris",
        "lat": 24.707742581115724,
        "lon": 55.652924951565105,
        "alt_km": 718.7085604206923,
        "timestamp": "2025-12-05T18:53:13.665973+00:00",
        "meta_object_name": "IRIDIUM 33 DEB",
        "meta_object_id": "1997-051MH",
        "meta_epoch": "2025-12-04T11:26:09.511872",
        "meta_mean_motion": 14.52297117,
        "meta_eccentricity": 0.00216,
        "meta_inclination": 86.3942,
        "meta_ra_of_asc_node": 54.5547,
        "meta_arg_of_pericenter": 123.9185,
        "meta_mean_anomaly": 254.0843,
        "meta_ephemeris_type": 0,
        "meta_classification_type": "U",
        "meta_norad_cat_id": 34833,
        "meta_element_set_no": 999,
        "meta_rev_at_epoch": 87595,
        "meta_bstar": 0.0019345,
        "meta_mean_motion_dot": 7.908e-05,
        "meta_mean_motion_ddot": 0,
        "tle_line1": "1 34833U 97051MH  25338.47649898  .00007908  00000+0  19345-2 0  9996",
        "tle_line2": "2 34833  86.3942  54.5547 0021600 123.9185 254.0843 14.52297117875952"
      },
      "geometry": {
        "type": "Point",
        "coordinates": [
          55.652924951565105,
          24.707742581115724
        ]
      }
    },
    {
      "type": "Feature",
      "properties": {
        "norad_id": 34870,
        "name": "IRIDIUM 33 DEB",
        "group": "iridium-33-debris",
        "lat": 62.11909781500943,
        "lon": 130.26243308682837,
        "alt_km": 635.8640435779889,
        "timestamp": "2025-12-05T18:53:13.665988+00:00",
        "meta_object_name": "IRIDIUM 33 DEB",
        "meta_object_id": "1997-051MQ",
        "meta_epoch": "2025-12-03T16:42:25.585344",
        "meta_mean_motion": 14.7612151,
        "meta_eccentricity": 0.00150063,
        "meta_inclination": 86.3102,
        "meta_ra_of_asc_node": 318.2257,
        "meta_arg_of_pericenter": 217.2591,
        "meta_mean_anomaly": 316.7951,
        "meta_ephemeris_type": 0,
        "meta_classification_type": "U",
        "meta_norad_cat_id": 34870,
        "meta_element_set_no": 999,
        "meta_rev_at_epoch": 88777,
        "meta_bstar": 0.002200073,
        "meta_mean_motion_dot": 0.00015256,
        "meta_mean_motion_ddot": 0,
        "tle_line1": "1 34870U 97051MQ  25337.69612946  .00015256  00000+0  22001-2 0  9992",
        "tle_line2": "2 34870  86.3102 318.2257 0015006 217.2591 316.7951 14.76121510887778"
      },
      "geometry": {
        "type": "Point",
        "coordinates": [
          130.26243308682837,
          62.11909781500943
        ]
      }
    },
    {
      "type": "Feature",
      "properties": {
        "norad_id": 34896,
        "name": "IRIDIUM 33 DEB",
        "group": "iridium-33-debris",
        "lat": -31.338575016297664,
        "lon": 152.045032658341,
        "alt_km": 664.7812732352022,
        "timestamp": "2025-12-05T18:53:13.666004+00:00",
        "meta_object_name": "IRIDIUM 33 DEB",
        "meta_object_id": "1997-051MY",
        "meta_epoch": "2025-12-04T17:55:03.279072",
        "meta_mean_motion": 14.66149435,
        "meta_eccentricity": 0.00238298,
        "meta_inclination": 86.3276,
        "meta_ra_of_asc_node": 330.2702,
        "meta_arg_of_pericenter": 244.1464,
        "meta_mean_anomaly": 239.446,
        "meta_ephemeris_type": 0,
        "meta_classification_type": "U",
        "meta_norad_cat_id": 34896,
        "meta_element_set_no": 999,
        "meta_rev_at_epoch": 87502,
        "meta_bstar": 0.0022862777,
        "meta_mean_motion_dot": 0.00012651,
        "meta_mean_motion_ddot": 0,
        "tle_line1": "1 34896U 97051MY  25338.74656573  .00012651  00000+0  22863-2 0  9993",
        "tle_line2": "2 34896  86.3276 330.2702 0023829 244.1464 239.4460 14.66149435875023"
      },
      "geometry": {
        "type": "Point",
        "coordinates": [
          152.045032658341,
          -31.338575016297664
        ]
      }
    },
    {
      "type": "Feature",
      "properties": {
        "norad_id": 34926,
        "name": "IRIDIUM 33 DEB",
        "group": "iridium-33-debris",
        "lat": -58.2539047127647,
        "lon": -162.2258027575197,
        "alt_km": 708.4412607960421,
        "timestamp": "2025-12-05T18:53:13.666019+00:00",
        "meta_object_name": "IRIDIUM 33 DEB",
        "meta_object_id": "1997-051NF",
        "meta_epoch": "2025-12-04T20:34:08.584320",
        "meta_mean_motion": 14.53864036,
        "meta_eccentricity": 0.0076536,
        "meta_inclination": 86.1319,
        "meta_ra_of_asc_node": 11.927,
        "meta_arg_of_pericenter": 319.676,
        "meta_mean_anomaly": 95.4397,
        "meta_ephemeris_type": 0,
        "meta_classification_type": "U",
        "meta_norad_cat_id": 34926,
        "meta_element_set_no": 999,
        "meta_rev_at_epoch": 86342,
        "meta_bstar": 0.01059,
        "meta_mean_motion_dot": 0.00046543,
        "meta_mean_motion_ddot": 0,
        "tle_line1": "1 34926U 97051NF  25338.85704380  .00046543  00000+0  10590-1 0  9999",
        "tle_line2": "2 34926  86.1319  11.9270 0076536 319.6760  95.4397 14.53864036863423"
      },
      "geometry": {
        "type": "Point",
        "coordinates": [
          -162.2258027575197,
          -58.2539047127647
        ]
      }
    },
    {
      "type": "Feature",
      "properties": {
        "norad_id": 34985,
        "name": "IRIDIUM 33 DEB",
        "group": "iridium-33-debris",
        "lat": -51.04944003924636,
        "lon": 55.34179486341576,
        "alt_km": 752.9065997150783,
        "timestamp": "2025-12-05T18:53:13.666035+00:00",
        "meta_object_name": "IRIDIUM 33 DEB",
        "meta_object_id": "1997-051NR",
        "meta_epoch": "2025-12-03T17:45:54.671040",
        "meta_mean_motion": 14.41942363,
        "meta_eccentricity": 0.0019945,
        "meta_inclination": 86.3703,
        "meta_ra_of_asc_node": 60.7182,
        "meta_arg_of_pericenter": 251.1586,
        "meta_mean_anomaly": 239.5788,
        "meta_ephemeris_type": 0,
        "meta_classification_type": "U",
        "meta_norad_cat_id": 34985,
        "meta_element_set_no": 999,
        "meta_rev_at_epoch": 87045,
        "meta_bstar": 0.0011135704,
        "meta_mean_motion_dot": 3.675e-05,
        "meta_mean_motion_ddot": 0,
        "tle_line1": "1 34985U 97051NR  25337.74021610  .00003675  00000+0  11136-2 0  9996",
        "tle_line2": "2 34985  86.3703  60.7182 0019945 251.1586 239.5788 14.41942363870451"
      },
      "geometry": {
        "type": "Point",
        "coordinates": [
          55.34179486341576,
          -51.04944003924636
        ]
      }
    },
    {
      "type": "Feature",
      "properties": {
        "norad_id": 35051,
        "name": "IRIDIUM 33 DEB",
        "group": "iridium-33-debris",
        "lat": 77.68525156778823,
        "lon": 174.77442045130002,
        "alt_km": 719.0875535913865,
        "timestamp": "2025-12-05T18:53:13.666050+00:00",
        "meta_object_name": "IRIDIUM 33 DEB",
        "meta_object_id": "1997-051NX",
        "meta_epoch": "2025-12-02T20:44:20.358528",
        "meta_mean_motion": 14.47524123,
        "meta_eccentricity": 0.00104766,
        "meta_inclination": 86.3255,
        "meta_ra_of_asc_node": 13.167,
        "meta_arg_of_pericenter": 117.6322,
        "meta_mean_anomaly": 242.5946,
        "meta_ephemeris_type": 0,
        "meta_classification_type": "U",
        "meta_norad_cat_id": 35051,
        "meta_element_set_no": 999,
        "meta_rev_at_epoch": 86853,
        "meta_bstar": 0.00083073982,
        "meta_mean_motion_dot": 3.075e-05,
        "meta_mean_motion_ddot": 0,
        "tle_line1": "1 35051U 97051NX  25336.86412452  .00003075  00000+0  83074-3 0  9996",
        "tle_line2": "2 35051  86.3255  13.1670 0010476 117.6322 242.5946 14.47524123868538"
      },
      "geometry": {
        "type": "Point",
        "coordinates": [
          174.77442045130002,
          77.68525156778823
        ]
      }
    }
  ]
}